[{"OBJECT_NAME":"ONEWEB-0125","OBJECT_ID":"2020-100P","EPOCH":"2026-02-28T22:01:43.061664","MEAN_MOTION":13.12445435,"ECCENTRICITY":0.0001627,"INCLINATION":87.8994,"RA_OF_ASC_NODE":12.1384,"ARG_OF_PERICENTER":71.0569,"MEAN_ANOMALY":289.0736,"EPHEMERIS_TYPE":0,"CLASSIFICATION_TYPE":"U","NORAD_CAT_ID":47271,"ELEMENT_SET_NO":999,"REV_AT_EPOCH":25043,"BSTAR":0.00028435,"MEAN_MOTION_DOT":1.15e-6,"MEAN_MOTION_DDOT":0},{"OBJECT_NAME":"ONEWEB-0126","OBJECT_ID":"2020-100Q","EPOCH":"2026-02-28T22:31:10.536096","MEAN_MOTION":13.12440612,"ECCENTRICITY":0.0001972,"INCLINATION":87.8996,"RA_OF_ASC_NODE":12.1573,"ARG_OF_PERICENTER":78.7595,"MEAN_ANOMALY":281.3755,"EPHEMERIS_TYPE":0,"CLASSIFICATION_TYPE":"U","NORAD_CAT_ID":47272,"ELEMENT_SET_NO":999,"REV_AT_EPOCH":25050,"BSTAR":0.00063721,"MEAN_MOTION_DOT":2.42e-6,"MEAN_MOTION_DDOT":0},{"OBJECT_NAME":"ONEWEB-0127","OBJECT_ID":"2020-100R","EPOCH":"2026-02-28T21:42:10.573920","MEAN_MOTION":13.12442168,"ECCENTRICITY":0.0001986,"INCLINATION":87.8979,"RA_OF_ASC_NODE":12.1688,"ARG_OF_PERICENTER":82.6761,"MEAN_ANOMALY":277.4593,"EPHEMERIS_TYPE":0,"CLASSIFICATION_TYPE":"U","NORAD_CAT_ID":47273,"ELEMENT_SET_NO":999,"REV_AT_EPOCH":25052,"BSTAR":-0.00058902,"MEAN_MOTION_DOT":-1.99e-6,"MEAN_MOTION_DDOT":0},{"OBJECT_NAME":"ONEWEB-0128","OBJECT_ID":"2020-100S","EPOCH":"2026-02-28T22:13:54.766848","MEAN_MOTION":13.12442657,"ECCENTRICITY":0.0001677,"INCLINATION":87.8979,"RA_OF_ASC_NODE":12.1786,"ARG_OF_PERICENTER":90.9504,"MEAN_ANOMALY":269.1816,"EPHEMERIS_TYPE":0,"CLASSIFICATION_TYPE":"U","NORAD_CAT_ID":47274,"ELEMENT_SET_NO":999,"REV_AT_EPOCH":25054,"BSTAR":0.0012635,"MEAN_MOTION_DOT":4.67e-6,"MEAN_MOTION_DDOT":0},{"OBJECT_NAME":"ONEWEB-0129","OBJECT_ID":"2020-100T","EPOCH":"2026-02-28T21:44:37.743360","MEAN_MOTION":13.12442947,"ECCENTRICITY":0.0002971,"INCLINATION":87.8992,"RA_OF_ASC_NODE":12.1452,"ARG_OF_PERICENTER":85.6003,"MEAN_ANOMALY":274.5465,"EPHEMERIS_TYPE":0,"CLASSIFICATION_TYPE":"U","NORAD_CAT_ID":47275,"ELEMENT_SET_NO":999,"REV_AT_EPOCH":25047,"BSTAR":-0.00051087,"MEAN_MOTION_DOT":-1.71e-6,"MEAN_MOTION_DDOT":0},{"OBJECT_NAME":"ONEWEB-0130","OBJECT_ID":"2020-100U","EPOCH":"2026-02-28T20:33:53.033184","MEAN_MOTION":13.1244139,"ECCENTRICITY":0.00019182,"INCLINATION":87.899,"RA_OF_ASC_NODE":12.1491,"ARG_OF_PERICENTER":83.3342,"MEAN_ANOMALY":276.8004,"EPHEMERIS_TYPE":0,"CLASSIFICATION_TYPE":"U","NORAD_CAT_ID":47276,"ELEMENT_SET_NO":999,"REV_AT_EPOCH":25043,"BSTAR":0.0010761075,"MEAN_MOTION_DOT":4.0e-6,"MEAN_MOTION_DDOT":0},{"OBJECT_NAME":"ONEWEB-0131","OBJECT_ID":"2020-100V","EPOCH":"2026-02-28T22:18:46.759968","MEAN_MOTION":13.12441595,"ECCENTRICITY":0.0001847,"INCLINATION":87.8985,"RA_OF_ASC_NODE":12.1645,"ARG_OF_PERICENTER":81.7129,"MEAN_ANOMALY":278.4209,"EPHEMERIS_TYPE":0,"CLASSIFICATION_TYPE":"U","NORAD_CAT_ID":47277,"ELEMENT_SET_NO":999,"REV_AT_EPOCH":25048,"BSTAR":0.0011307,"MEAN_MOTION_DOT":4.19e-6,"MEAN_MOTION_DDOT":0},{"OBJECT_NAME":"ONEWEB-0132","OBJECT_ID":"2020-100W","EPOCH":"2026-02-28T21:10:27.478272","MEAN_MOTION":13.12441413,"ECCENTRICITY":0.0001806,"INCLINATION":87.8986,"RA_OF_ASC_NODE":12.1724,"ARG_OF_PERICENTER":81.9235,"MEAN_ANOMALY":278.2098,"EPHEMERIS_TYPE":0,"CLASSIFICATION_TYPE":"U","NORAD_CAT_ID":47278,"ELEMENT_SET_NO":999,"REV_AT_EPOCH":25037,"BSTAR":-0.00079376,"MEAN_MOTION_DOT":-2.73e-6,"MEAN_MOTION_DDOT":0},{"OBJECT_NAME":"ONEWEB-0133","OBJECT_ID":"2020-100X","EPOCH":"2026-02-28T21:34:39.388800","MEAN_MOTION":13.12441975,"ECCENTRICITY":0.0001757,"INCLINATION":87.8994,"RA_OF_ASC_NODE":12.1332,"ARG_OF_PERICENTER":84.9044,"MEAN_ANOMALY":275.2285,"EPHEMERIS_TYPE":0,"CLASSIFICATION_TYPE":"U","NORAD_CAT_ID":47279,"ELEMENT_SET_NO":999,"REV_AT_EPOCH":25053,"BSTAR":-0.00099642,"MEAN_MOTION_DOT":-3.46e-6,"MEAN_MOTION_DDOT":0},{"OBJECT_NAME":"ONEWEB-0134","OBJECT_ID":"2020-100Y","EPOCH":"2026-02-28T22:40:44.472288","MEAN_MOTION":13.12440417,"ECCENTRICITY":0.0001922,"INCLINATION":87.8996,"RA_OF_ASC_NODE":12.1212,"ARG_OF_PERICENTER":87.7589,"MEAN_ANOMALY":272.376,"EPHEMERIS_TYPE":0,"CLASSIFICATION_TYPE":"U","NORAD_CAT_ID":47280,"ELEMENT_SET_NO":999,"REV_AT_EPOCH":25051,"BSTAR":0.00028408,"MEAN_MOTION_DOT":1.15e-6,"MEAN_MOTION_DDOT":0},{"OBJECT_NAME":"ONEWEB-0135","OBJECT_ID":"2020-100Z","EPOCH":"2026-02-28T21:59:15.128448","MEAN_MOTION":13.12448503,"ECCENTRICITY":0.0001819,"INCLINATION":87.8986,"RA_OF_ASC_NODE":12.1639,"ARG_OF_PERICENTER":91.7794,"MEAN_ANOMALY":268.3543,"EPHEMERIS_TYPE":0,"CLASSIFICATION_TYPE":"U","NORAD_CAT_ID":47281,"ELEMENT_SET_NO":999,"REV_AT_EPOCH":25053,"BSTAR":-0.0025657,"MEAN_MOTION_DOT":-9.1e-6,"MEAN_MOTION_DDOT":0},{"OBJECT_NAME":"ONEWEB-0136","OBJECT_ID":"2020-100AA","EPOCH":"2026-02-28T20:36:18.878112","MEAN_MOTION":13.12440899,"ECCENTRICITY":0.00020852,"INCLINATION":87.8993,"RA_OF_ASC_NODE":12.1477,"ARG_OF_PERICENTER":90.926,"MEAN_ANOMALY":269.2107,"EPHEMERIS_TYPE":0,"CLASSIFICATION_TYPE":"U","NORAD_CAT_ID":47282,"ELEMENT_SET_NO":999,"REV_AT_EPOCH":25045,"BSTAR":0.0010382374,"MEAN_MOTION_DOT":3.86e-6,"MEAN_MOTION_DDOT":0},{"OBJECT_NAME":"ONEWEB-0137","OBJECT_ID":"2020-100AB","EPOCH":"2026-02-28T21:25:05.996064","MEAN_MOTION":13.12441809,"ECCENTRICITY":0.0001882,"INCLINATION":87.8995,"RA_OF_ASC_NODE":12.1458,"ARG_OF_PERICENTER":77.1695,"MEAN_ANOMALY":282.9643,"EPHEMERIS_TYPE":0,"CLASSIFICATION_TYPE":"U","NORAD_CAT_ID":47283,"ELEMENT_SET_NO":999,"REV_AT_EPOCH":25036,"BSTAR":-0.0013594,"MEAN_MOTION_DOT":-4.76e-6,"MEAN_MOTION_DDOT":0},{"OBJECT_NAME":"ONEWEB-0138","OBJECT_ID":"2020-100AC","EPOCH":"2026-02-28T20:53:23.741952","MEAN_MOTION":13.12440638,"ECCENTRICITY":0.0001962,"INCLINATION":87.8995,"RA_OF_ASC_NODE":12.1599,"ARG_OF_PERICENTER":85.46,"MEAN_ANOMALY":274.6753,"EPHEMERIS_TYPE":0,"CLASSIFICATION_TYPE":"U","NORAD_CAT_ID":47284,"ELEMENT_SET_NO":999,"REV_AT_EPOCH":25044,"BSTAR":-6.7283e-5,"MEAN_MOTION_DOT":-1.1e-7,"MEAN_MOTION_DDOT":0},{"OBJECT_NAME":"ONEWEB-0139","OBJECT_ID":"2020-100AD","EPOCH":"2026-02-28T21:52:09.377760","MEAN_MOTION":13.12442539,"ECCENTRICITY":0.0001877,"INCLINATION":87.899,"RA_OF_ASC_NODE":12.1393,"ARG_OF_PERICENTER":81.3394,"MEAN_ANOMALY":278.7947,"EPHEMERIS_TYPE":0,"CLASSIFICATION_TYPE":"U","NORAD_CAT_ID":47285,"ELEMENT_SET_NO":999,"REV_AT_EPOCH":25052,"BSTAR":6.0259e-5,"MEAN_MOTION_DOT":3.4e-7,"MEAN_MOTION_DDOT":0},{"OBJECT_NAME":"ONEWEB-0140","OBJECT_ID":"2020-100AE","EPOCH":"2026-02-28T20:46:04.372896","MEAN_MOTION":13.12440479,"ECCENTRICITY":0.00016926,"INCLINATION":87.8994,"RA_OF_ASC_NODE":12.1369,"ARG_OF_PERICENTER":83.6969,"MEAN_ANOMALY":276.4353,"EPHEMERIS_TYPE":0,"CLASSIFICATION_TYPE":"U","NORAD_CAT_ID":47286,"ELEMENT_SET_NO":999,"REV_AT_EPOCH":25048,"BSTAR":0.00049031944,"MEAN_MOTION_DOT":1.89e-6,"MEAN_MOTION_DDOT":0},{"OBJECT_NAME":"ONEWEB-0141","OBJECT_ID":"2020-100AF","EPOCH":"2026-02-28T21:51:44.734752","MEAN_MOTION":13.12442673,"ECCENTRICITY":0.000201,"INCLINATION":87.8992,"RA_OF_ASC_NODE":12.134,"ARG_OF_PERICENTER":71.9038,"MEAN_ANOMALY":288.2309,"EPHEMERIS_TYPE":0,"CLASSIFICATION_TYPE":"U","NORAD_CAT_ID":47287,"ELEMENT_SET_NO":999,"REV_AT_EPOCH":25047,"BSTAR":0.00031193,"MEAN_MOTION_DOT":1.25e-6,"MEAN_MOTION_DDOT":0}]
