ONEWEB-0125             
1 47271U 20100P   26059.91785951  .00000115  00000+0  28435-3 0  9992
2 47271  87.8994  12.1384 0001627  71.0569 289.0736 13.12445435250432
ONEWEB-0126             
1 47272U 20100Q   26059.93831639  .00000242  00000+0  63721-3 0  9998
2 47272  87.8996  12.1573 0001972  78.7595 281.3755 13.12440612250507
ONEWEB-0127             
1 47273U 20100R   26059.90428905 -.00000199  00000+0 -58902-3 0  9992
2 47273  87.8979  12.1688 0001986  82.6761 277.4593 13.12442168250526
ONEWEB-0128             
1 47274U 20100S   26059.92632832  .00000467  00000+0  12635-2 0  9999
2 47274  87.8979  12.1786 0001677  90.9504 269.1816 13.12442657250541
ONEWEB-0129             
1 47275U 20100T   26059.90599240 -.00000171  00000+0 -51087-3 0  9992
2 47275  87.8992  12.1452 0002971  85.6003 274.5465 13.12442947250474
ONEWEB-0130             
1 47276U 20100U   26059.85686381  .00000400  00000+0  10761-2 0  9996
2 47276  87.8990  12.1491 0001918  83.3342 276.8004 13.12441390250438
ONEWEB-0131             
1 47277U 20100V   26059.92970787  .00000419  00000+0  11307-2 0  9998
2 47277  87.8985  12.1645 0001847  81.7129 278.4209 13.12441595250487
ONEWEB-0132             
1 47278U 20100W   26059.88226248 -.00000273  00000+0 -79376-3 0  9991
2 47278  87.8986  12.1724 0001806  81.9235 278.2098 13.12441413250373
ONEWEB-0133             
1 47279U 20100X   26059.89906700 -.00000346  00000+0 -99642-3 0  9990
2 47279  87.8994  12.1332 0001757  84.9044 275.2285 13.12441975250530
ONEWEB-0134             
1 47280U 20100Y   26059.94495917  .00000115  00000+0  28408-3 0  9995
2 47280  87.8996  12.1212 0001922  87.7589 272.3760 13.12440417250514
ONEWEB-0135             
1 47281U 20100Z   26059.91614732 -.00000910  00000+0 -25657-2 0  9998
2 47281  87.8986  12.1639 0001819  91.7794 268.3543 13.12448503250535
ONEWEB-0136             
1 47282U 20100AA  26059.85855183  .00000386  00000+0  10382-2 0  9993
2 47282  87.8993  12.1477 0002085  90.9260 269.2107 13.12440899250456
ONEWEB-0137             
1 47283U 20100AB  26059.89243051 -.00000476  00000+0 -13594-2 0  9993
2 47283  87.8995  12.1458 0001882  77.1695 282.9643 13.12441809250360
ONEWEB-0138             
1 47284U 20100AC  26059.87041368 -.00000011  00000+0 -67283-4 0  9990
2 47284  87.8995  12.1599 0001962  85.4600 274.6753 13.12440638250442
ONEWEB-0139             
1 47285U 20100AD  26059.91121965  .00000034  00000+0  60259-4 0  9997
2 47285  87.8990  12.1393 0001877  81.3394 278.7947 13.12442539250521
ONEWEB-0140             
1 47286U 20100AE  26059.86532839  .00000189  00000+0  49032-3 0  9994
2 47286  87.8994  12.1369 0001692  83.6969 276.4353 13.12440479250489
ONEWEB-0141             
1 47287U 20100AF  26059.91093443  .00000125  00000+0  31193-3 0  9993
2 47287  87.8992  12.1340 0002010  71.9038 288.2309 13.12442673250478
